NORAD_CAT_ID,OBJECT_NAME,OBJECT_TYPE,EPOCH,MEAN_MOTION,ECCENTRICITY,INCLINATION,RA_OF_ASC_NODE,ARG_OF_PERICENTER,MEAN_ANOMALY,BSTAR,MEAN_MOTION_DOT,MEAN_MOTION_DDOT,TLE_LINE0,TLE_LINE1,TLE_LINE2,SEMIMAJOR_AXIS,PERIOD,APOGEE,PERIGEE,DECAYED
52587.0,STARLINK-3867,PAYLOAD,2022-11-14 17:23:37,15.08835045,0.0001997,53.218,155.3649,40.2101,319.9038,4.2952e-05,3.95e-06,0.0,0 STARLINK-3867,1 52587U 22051BD  22318.72474011  .00000395  00000-0  42952-4 0  9992,2 52587  53.2180 155.3649 0001997  40.2101 319.9038 15.08835045 28771,6917.896,95.438,541.1419999999998,538.379,0.0
52587.0,STARLINK-3867,PAYLOAD,2022-11-14 20:34:23,15.08835035,0.0002015,53.2181,154.7702,40.2002,319.9139,3.884800000000001e-05,3.3e-06,0.0,0 STARLINK-3867,1 52587U 22051BD  22318.85722043  .00000330  00000-0  38848-4 0  9995,2 52587  53.2181 154.7702 0002015  40.2002 319.9139 15.08835035 28868,6917.896,95.438,541.155,538.367,0.0
52587.0,STARLINK-3867,PAYLOAD,2022-11-15 07:42:05,15.08832275,0.0002044,53.2179,152.6889,40.417,319.6974,0.00013302,1.829e-05,0.0,0 STARLINK-3867,1 52587U 22051BD  22319.32090046  .00001829  00000-0  13302-3 0  9990,2 52587  53.2179 152.6889 0002044  40.4170 319.6974 15.08832275 28865,6917.904,95.438,541.183,538.355,0.0
52587.0,STARLINK-3867,PAYLOAD,2022-11-15 20:25:10,15.08837563,0.0002077,53.218,150.3101,41.3636,318.7513,0.00016719,2.373e-05,0.0,0 STARLINK-3867,1 52587U 22051BD  22319.85081950  .00002373  00000-0  16719-3 0  9992,2 52587  53.2180 150.3101 0002077  41.3636 318.7513 15.08837563 28945,6917.888000000001,95.438,541.19,538.316,0.0
52587.0,STARLINK-3867,PAYLOAD,2022-11-16 12:19:01,15.0884483,0.0002131,53.2179,147.3365,42.1065,318.009,0.00016698,2.371e-05,0.0,0 STARLINK-3867,1 52587U 22051BD  22320.51321627  .00002371  00000-0  16698-3 0  9999,2 52587  53.2179 147.3365 0002131  42.1065 318.0090 15.08844830 29115,6917.866,95.437,541.205,538.256,0.0
52587.0,STARLINK-3867,PAYLOAD,2022-11-16 18:40:34,15.08848039,0.0002148,53.2179,146.1472,42.5737,317.5421,0.00019456,2.81e-05,0.0,0 STARLINK-3867,1 52587U 22051BD  22320.77817422  .00002810  00000-0  19456-3 0  9993,2 52587  53.2179 146.1472 0002148  42.5737 317.5421 15.08848039 29082,6917.856,95.437,541.207,538.235,0.0
52587.0,STARLINK-3867,PAYLOAD,2022-11-17 12:09:49,15.08837904,0.0002296,53.217,142.877,43.052,317.0652,-1.3651e-05,-5.06e-06,0.0,0 STARLINK-3867,1 52587U 22051BD  22321.50682016 -.00000506  00000-0 -13651-4 0  9998,2 52587  53.2170 142.8770 0002296  43.0520 317.0652 15.08837904 29199,6917.887,95.438,541.34,538.163,0.0
52587.0,STARLINK-3867,PAYLOAD,2022-11-17 15:20:35,15.08838294,0.0002251,53.2176,142.2818,43.7263,316.3907,2.6103e-05,1.27e-06,0.0,0 STARLINK-3867,1 52587U 22051BD  22321.63930343  .00000127  00000-0  26103-4 0  9994,2 52587  53.2176 142.2818 0002251  43.7263 316.3907 15.08838294 29282,6917.886,95.438,541.308,538.193,0.0
52587.0,STARLINK-3867,PAYLOAD,2022-11-18 12:00:36,15.08843588,0.0002112,53.2182,138.415,43.8941,316.2219,7.5598e-05,9.15e-06,0.0,0 STARLINK-3867,1 52587U 22051BD  22322.50041778  .00000915  00000-0  75598-4 0  9993,2 52587  53.2182 138.4150 0002112  43.8941 316.2219 15.08843588 29349,6917.869000000002,95.437,541.195,538.273,0.0
52587.0,STARLINK-3867,PAYLOAD,2022-11-18 18:22:08,15.08848341,0.000226,53.2178,137.2258,46.1321,313.9857,7.0365e-05,8.32e-06,0.0,0 STARLINK-3867,1 52587U 22051BD  22322.76537458  .00000832  00000-0  70365-4 0  9991,2 52587  53.2178 137.2258 0002260  46.1321 313.9857 15.08848341 29458,6917.855,95.437,541.283,538.156,0.0
52587.0,STARLINK-3867,PAYLOAD,2022-11-18 21:32:54,15.088487699999998,0.0002176,53.2179,136.631,46.6795,313.4378,5.5733e-05,5.99e-06,0.0,0 STARLINK-3867,1 52587U 22051BD  22322.89785351  .00000599  00000-0  55733-4 0  9994,2 52587  53.2179 136.6310 0002176  46.6795 313.4378 15.08848770 29401,6917.854,95.437,541.224,538.2130000000002,0.0
52587.0,STARLINK-3867,PAYLOAD,2022-11-19 18:12:54,15.08850788,0.0002257,53.218,132.7656,44.5879,315.5295,0.00019074,2.75e-05,0.0,0 STARLINK-3867,1 52587U 22051BD  22323.75896876  .00002750  00000-0  19074-3 0  9993,2 52587  53.2180 132.7656 0002257  44.5879 315.5295 15.08850788 29530,6917.847,95.437,541.274,538.151,0.0
52587.0,STARLINK-3867,PAYLOAD,2022-11-20 11:42:10,15.08838511,0.0002288,53.2179,129.495,45.0122,315.1056,4.2399e-05,3.87e-06,0.0,0 STARLINK-3867,1 52587U 22051BD  22324.48761851  .00000387  00000-0  42399-4 0  9999,2 52587  53.2179 129.4950 0002288  45.0122 315.1056 15.08838511 29710,6917.885,95.438,541.3330000000002,538.1669999999998,0.0
52587.0,STARLINK-3867,PAYLOAD,2022-11-20 18:03:42,15.08840413,0.0002303,53.2182,128.3056,44.3058,315.8118,1.3935e-05,-6.7e-07,0.0,0 STARLINK-3867,1 52587U 22051BD  22324.75257637 -.00000067  00000-0  13935-4 0  9991,2 52587  53.2182 128.3056 0002303  44.3058 315.8118 15.08840413 29683,6917.879,95.438,541.337,538.151,0.0
52587.0,STARLINK-3867,PAYLOAD,2022-11-21 11:32:56,15.08846415,0.0002259,53.2181,125.0346,41.8966,318.2199,3.1676999999999995e-05,2.16e-06,0.0,0 STARLINK-3867,1 52587U 22051BD  22325.48121066  .00000216  00000-0  31677-4 0  9996,2 52587  53.2181 125.0346 0002259  41.8966 318.2199 15.08846415 29862,6917.861,95.437,541.289,538.163,0.0
52587.0,STARLINK-3867,PAYLOAD,2022-11-21 21:05:16,15.0883731,0.0002272,53.2196,123.2506,40.4994,319.6167,-5.5338e-05,-1.169e-05,0.0,0 STARLINK-3867,1 52587U 22051BD  22325.87865774 -.00001169  00000-0 -55338-4 0  9990,2 52587  53.2196 123.2506 0002272  40.4994 319.6167 15.08837310 29850,6917.889,95.438,541.325,538.182,0.0
52587.0,STARLINK-3867,PAYLOAD,2022-11-22 17:45:17,15.08834073,0.0002272,53.2193,119.3851,46.1819,313.9361,3.6171e-05,2.87e-06,0.0,0 STARLINK-3867,1 52587U 22051BD  22326.73978194  .00000287  00000-0  36171-4 0  9999,2 52587  53.2193 119.3851 0002272  46.1819 313.9361 15.08834073 29985,6917.899,95.438,541.335,538.192,0.0
52587.0,STARLINK-3867,PAYLOAD,2022-11-23 03:17:35,15.08838407,0.0002308,53.219,117.6009,45.2133,314.9047,5.1814e-05,5.36e-06,0.0,0 STARLINK-3867,1 52587U 22051BD  22327.13721974  .00000536  00000-0  51814-4 0  9994,2 52587  53.2190 117.6009 0002308  45.2133 314.9047 15.08838407 30111,6917.885,95.438,541.347,538.154,0.0
52587.0,STARLINK-3867,PAYLOAD,2022-11-23 09:39:08,15.08839913,0.0002284,53.2191,116.4111,43.6138,316.5035,6.2853e-05,7.12e-06,0.0,0 STARLINK-3867,1 52587U 22051BD  22327.40217876  .00000712  00000-0  62853-4 0  9996,2 52587  53.2191 116.4111 0002284  43.6138 316.5035 15.08839913 30087,6917.880999999999,95.438,541.326,538.1659999999998,0.0
52587.0,STARLINK-3867,PAYLOAD,2022-11-23 17:36:06,15.08722722,0.0003024,53.219,114.925,49.1105,311.0148,0.0018415,0.00029048,0.0,0 STARLINK-3867,1 52587U 22051BD  22327.73341221  .00029048  00000-0  18415-2 0  9990,2 52587  53.2190 114.9250 0003024  49.1105 311.0148 15.08722722 30209,6918.239000000001,95.445,542.196,538.012,0.0
52587.0,STARLINK-3867,PAYLOAD,2022-11-24 03:08:22,15.08842484,0.0002276,53.2191,113.1406,45.0237,315.0939,0.00017535,2.504e-05,0.0,0 STARLINK-3867,1 52587U 22051BD  22328.13081419  .00002504  00000-0  17535-3 0  9996,2 52587  53.2191 113.1406 0002276  45.0237 315.0939 15.08842484 30269,6917.873000000001,95.437,541.312,538.163,0.0
52587.0,STARLINK-3867,PAYLOAD,2022-11-24 09:29:55,15.08842563,0.0002293,53.2188,111.9511,46.1522,313.9659,0.00015355,2.157e-05,0.0,0 STARLINK-3867,1 52587U 22051BD  22328.39577569  .00002157  00000-0  15355-3 0  9992,2 52587  53.2188 111.9511 0002293  46.1522 313.9659 15.08842563 30237,6917.873000000001,95.437,541.3240000000002,538.151,0.0
52587.0,STARLINK-3867,PAYLOAD,2022-11-24 14:16:04,15.08839676,0.000231,53.2192,111.0588,46.5658,313.5526,8.401e-05,1.049e-05,0.0,0 STARLINK-3867,1 52587U 22051BD  22328.59449983  .00001049  00000-0  84010-4 0  9996,2 52587  53.2192 111.0588 0002310  46.5658 313.5526 15.08839676 30332,6917.880999999999,95.438,541.344,538.148,0.0
52587.0,STARLINK-3867,PAYLOAD,2022-11-25 09:20:42,15.08842589,0.0002338,53.2191,107.4904,46.8148,313.3039,6.7636e-05,7.88e-06,0.0,0 STARLINK-3867,1 52587U 22051BD  22329.38937759  .00000788  00000-0  67636-4 0  9991,2 52587  53.2191 107.4904 0002338  46.8148 313.3039 15.08842589 30388,6917.871999999999,95.437,541.355,538.12,0.0
52587.0,STARLINK-3867,PAYLOAD,2022-11-25 15:42:14,15.08849742,0.0002315,53.2187,106.3009,46.738,313.3805,0.00011458,1.536e-05,0.0,0 STARLINK-3867,1 52587U 22051BD  22329.65433143  .00001536  00000-0  11458-3 0  9991,2 52587  53.2187 106.3009 0002315  46.7380 313.3805 15.08849742 30490,6917.851,95.437,541.317,538.114,0.0
52587.0,STARLINK-3867,PAYLOAD,2022-11-26 09:11:28,15.08846094,0.0002353,53.2199,103.0305,48.1332,311.9861,9.1833e-05,1.174e-05,0.0,0 STARLINK-3867,1 52587U 22051BD  22330.38297007  .00001174  00000-0  91833-4 0  9994,2 52587  53.2199 103.0305 0002353  48.1332 311.9861 15.08846094 30539,6917.861999999999,95.437,541.355,538.099,0.0
52587.0,STARLINK-3867,PAYLOAD,2022-11-26 18:43:47,15.08844618,0.0002337,53.2195,101.2462,48.6411,311.4782,0.00011106,1.4800000000000002e-05,0.0,0 STARLINK-3867,1 52587U 22051BD  22330.78040911  .00001480  00000-0  11106-3 0  9992,2 52587  53.2195 101.2462 0002337  48.6411 311.4782 15.08844618 30665,6917.866,95.437,541.3480000000002,538.115,0.0
52587.0,STARLINK-3867,PAYLOAD,2022-11-27 09:02:15,15.08845833,0.0002374,53.2186,98.5702,47.7295,312.3898,3.6684e-05,2.96e-06,0.0,0 STARLINK-3867,1 52587U 22051BD  22331.37656858  .00000296  00000-0  36684-4 0  9994,2 52587  53.2186  98.5702 0002374  47.7295 312.3898 15.08845833 30681,6917.863,95.437,541.37,538.085,0.0
52587.0,STARLINK-3867,PAYLOAD,2022-11-27 18:34:34,15.08836631,0.0002017,53.2194,96.7855,39.7108,320.4032,-7.7202e-05,-1.517e-05,0.0,0 STARLINK-3867,1 52587U 22051BD  22331.77401547 -.00001517  00000-0 -77202-4 0  9991,2 52587  53.2194  96.7855 0002017  39.7108 320.4032 15.08836631 30818,6917.891,95.438,541.151,538.36,0.0
